start=new Date('2022-02-24T00:00:00.000Z').valueOf();
sats=[{"PERIOD":"95.592","SEMIMAJOR_AXIS":"6925.361","BSTAR":"0.00023730000000","PERIAPSIS":"546.144","CLASSIFICATION_TYPE":"U","ARG_OF_PERICENTER":"80.3489","REV_AT_EPOCH":"7748","RA_OF_ASC_NODE":"297.5500","MEAN_MOTION":"15.06396016","TLE_LINE2":"2 46541  53.0568 297.5500 0001562  80.3489 279.7676 15.06396016 77480","APOAPSIS":"548.308","SITE":"AFETR","RCS_SIZE":"LARGE","MEAN_MOTION_DOT":"0.00003254","EPOCH":"2022-02-23T19:45:35.830368","TLE_LINE1":"1 46541U 20070K   22054.82333137  .00003254  00000-0  23730-3 0  9994","MEAN_MOTION_DDOT":"0.0000000000000","INCLINATION":"53.0568","FILE":"3317219","LAUNCH_DATE":"2020-10-06","MEAN_ELEMENT_THEORY":"SGP4","GP_ID":"196785991","ELEMENT_SET_NO":"999","ECCENTRICITY":"0.00015620","OBJECT_ID":"2020-070K","TIME_SYSTEM":"UTC","EPHEMERIS_TYPE":"0","COUNTRY_CODE":"US","OBJECT_TYPE":"PAYLOAD","DECAY_DATE":null,"NORAD_CAT_ID":"46541","OBJECT_NAME":"STARLINK-1687","REF_FRAME":"TEME","CENTER_NAME":"EARTH","MEAN_ANOMALY":"279.7676"},{"MEAN_MOTION_DDOT":"0.0000000000000","TLE_LINE1":"1 46542U 20070L   22054.75882705  .00001050  00000-0  89402-4 0  9998","EPOCH":"2022-02-23T18:12:42.657120","MEAN_MOTION_DOT":"0.00001050","SITE":"AFETR","RCS_SIZE":"LARGE","TLE_LINE2":"2 46542  53.0552 317.8423 0001486  70.1326 289.9823 15.06389866 77196","APOAPSIS":"548.274","MEAN_MOTION":"15.06389866","RA_OF_ASC_NODE":"317.8423","REV_AT_EPOCH":"7719","ARG_OF_PERICENTER":"70.1326","CLASSIFICATION_TYPE":"U","PERIAPSIS":"546.216","SEMIMAJOR_AXIS":"6925.380","BSTAR":"0.00008940200000","PERIOD":"95.593","MEAN_ANOMALY":"289.9823","CENTER_NAME":"EARTH","REF_FRAME":"TEME","OBJECT_NAME":"STARLINK-1692","NORAD_CAT_ID":"46542","DECAY_DATE":null,"COUNTRY_CODE":"US","OBJECT_TYPE":"PAYLOAD","EPHEMERIS_TYPE":"0","OBJECT_ID":"2020-070L","TIME_SYSTEM":"UTC","ECCENTRICITY":"0.00014860","MEAN_ELEMENT_THEORY":"SGP4","GP_ID":"196784739","ELEMENT_SET_NO":"999","LAUNCH_DATE":"2020-10-06","FILE":"3317219","INCLINATION":"53.0552"},{"REF_FRAME":"TEME","CENTER_NAME":"EARTH","MEAN_ANOMALY":"309.5204","COUNTRY_CODE":"US","OBJECT_TYPE":"PAYLOAD","EPHEMERIS_TYPE":"0","DECAY_DATE":null,"NORAD_CAT_ID":"46543","OBJECT_NAME":"STARLINK-1693","ECCENTRICITY":"0.00015320","TIME_SYSTEM":"UTC","OBJECT_ID":"2020-070M","INCLINATION":"53.0555","FILE":"3317219","LAUNCH_DATE":"2020-10-06","ELEMENT_SET_NO":"999","GP_ID":"196784989","MEAN_ELEMENT_THEORY":"SGP4","EPOCH":"2022-02-23T21:02:33.722880","MEAN_MOTION_DOT":"0.00002610","TLE_LINE1":"1 46543U 20070M   22054.87677920  .00002610  00000-0  19416-3 0  9993","MEAN_MOTION_DDOT":"0.0000000000000","RA_OF_ASC_NODE":"317.3044","MEAN_MOTION":"15.06384647","APOAPSIS":"548.322","TLE_LINE2":"2 46543  53.0555 317.3044 0001532  50.5921 309.5204 15.06384647 77216","RCS_SIZE":"LARGE","SITE":"AFETR","PERIAPSIS":"546.200","ARG_OF_PERICENTER":"50.5921","CLASSIFICATION_TYPE":"U","REV_AT_EPOCH":"7721","PERIOD":"95.593","BSTAR":"0.00019416000000","SEMIMAJOR_AXIS":"6925.396"},{"ARG_OF_PERICENTER":"63.7191","CLASSIFICATION_TYPE":"U","REV_AT_EPOCH":"7742","PERIAPSIS":"546.003","PERIOD":"95.592","BSTAR":"0.00016248000000","SEMIMAJOR_AXIS":"6925.333","TLE_LINE1":"1 46544U 20070N   22054.87262169  .00002140  00000-0  16248-3 0  9997","MEAN_MOTION_DDOT":"0.0000000000000","MEAN_MOTION_DOT":"0.00002140","EPOCH":"2022-02-23T20:56:34.514016","APOAPSIS":"548.393","TLE_LINE2":"2 46544  53.0549 302.3335 0001726  63.7191 296.3975 15.06405070 77422","RCS_SIZE":"LARGE","SITE":"AFETR","RA_OF_ASC_NODE":"302.3335","MEAN_MOTION":"15.06405070","ECCENTRICITY":"0.00017260","TIME_SYSTEM":"UTC","OBJECT_ID":"2020-070N","GP_ID":"196785741","ELEMENT_SET_NO":"999","MEAN_ELEMENT_THEORY":"SGP4","INCLINATION":"53.0549","FILE":"3317219","LAUNCH_DATE":"2020-10-06","MEAN_ANOMALY":"296.3975","REF_FRAME":"TEME","CENTER_NAME":"EARTH","NORAD_CAT_ID":"46544","OBJECT_NAME":"STARLINK-1694","COUNTRY_CODE":"US","OBJECT_TYPE":"PAYLOAD","EPHEMERIS_TYPE":"0","DECAY_DATE":null},{"ARG_OF_PERICENTER":"71.9456","CLASSIFICATION_TYPE":"U","REV_AT_EPOCH":"7718","PERIAPSIS":"546.171","PERIOD":"95.593","BSTAR":"0.00052703000000","SEMIMAJOR_AXIS":"6925.381","TLE_LINE1":"1 46545U 20070P   22054.71461375  .00007575  00000-0  52703-3 0  9994","MEAN_MOTION_DDOT":"0.0000000000000","MEAN_MOTION_DOT":"0.00007575","EPOCH":"2022-02-23T17:09:02.628000","APOAPSIS":"548.322","TLE_LINE2":"2 46545  53.0548 318.0521 0001553  71.9456 288.1702 15.06389368 77187","RCS_SIZE":"LARGE","SITE":"AFETR","RA_OF_ASC_NODE":"318.0521","MEAN_MOTION":"15.06389368","ECCENTRICITY":"0.00015530","TIME_SYSTEM":"UTC","OBJECT_ID":"2020-070P","ELEMENT_SET_NO":"999","GP_ID":"196786492","MEAN_ELEMENT_THEORY":"SGP4","INCLINATION":"53.0548","FILE":"3317219","LAUNCH_DATE":"2020-10-06","MEAN_ANOMALY":"288.1702","REF_FRAME":"TEME","CENTER_NAME":"EARTH","NORAD_CAT_ID":"46545","OBJECT_NAME":"STARLINK-1696","COUNTRY_CODE":"US","OBJECT_TYPE":"PAYLOAD","EPHEMERIS_TYPE":"0","DECAY_DATE":null},{"MEAN_MOTION":"15.06394754","RA_OF_ASC_NODE":"317.8019","RCS_SIZE":"LARGE","SITE":"AFETR","APOAPSIS":"548.362","TLE_LINE2":"2 46546  53.0543 317.8019 0001635  57.6972 302.4176 15.06394754 77198","MEAN_MOTION_DOT":"0.00001629","EPOCH":"2022-02-23T18:23:19.531392","MEAN_MOTION_DDOT":"0.0000000000000","TLE_LINE1":"1 46546U 20070Q   22054.76619828  .00001629  00000-0  12825-3 0  9993","BSTAR":"0.00012825000000","SEMIMAJOR_AXIS":"6925.365","PERIOD":"95.592","PERIAPSIS":"546.097","REV_AT_EPOCH":"7719","CLASSIFICATION_TYPE":"U","ARG_OF_PERICENTER":"57.6972","DECAY_DATE":null,"COUNTRY_CODE":"US","EPHEMERIS_TYPE":"0","OBJECT_TYPE":"PAYLOAD","OBJECT_NAME":"STARLINK-1697","NORAD_CAT_ID":"46546","CENTER_NAME":"EARTH","REF_FRAME":"TEME","MEAN_ANOMALY":"302.4176","LAUNCH_DATE":"2020-10-06","INCLINATION":"53.0543","FILE":"3317219","ELEMENT_SET_NO":"999","GP_ID":"196785240","MEAN_ELEMENT_THEORY":"SGP4","TIME_SYSTEM":"UTC","OBJECT_ID":"2020-070Q","ECCENTRICITY":"0.00016350"},{"MEAN_ELEMENT_THEORY":"SGP4","ELEMENT_SET_NO":"999","GP_ID":"196785490","INCLINATION":"53.0545","FILE":"3317219","LAUNCH_DATE":"2020-10-06","ECCENTRICITY":"0.00016800","OBJECT_ID":"2020-070R","TIME_SYSTEM":"UTC","NORAD_CAT_ID":"46547","OBJECT_NAME":"STARLINK-1698","COUNTRY_CODE":"US","OBJECT_TYPE":"PAYLOAD","EPHEMERIS_TYPE":"0","DECAY_DATE":null,"MEAN_ANOMALY":"295.1618","REF_FRAME":"TEME","CENTER_NAME":"EARTH","PERIOD":"95.592","SEMIMAJOR_AXIS":"6925.358","BSTAR":"-0.00003502500000","ARG_OF_PERICENTER":"64.9545","CLASSIFICATION_TYPE":"U","REV_AT_EPOCH":"7721","PERIAPSIS":"546.059","TLE_LINE2":"2 46547  53.0545 317.3759 0001680  64.9545 295.1618 15.06397072 77212","APOAPSIS":"548.386","SITE":"AFETR","RCS_SIZE":"LARGE","RA_OF_ASC_NODE":"317.3759","MEAN_MOTION":"15.06397072","TLE_LINE1":"1 46547U 20070R   22054.86202314 -.00000803  00000-0 -35025-4 0  9996","MEAN_MOTION_DDOT":"0.0000000000000","EPOCH":"2022-02-23T20:41:18.799296","MEAN_MOTION_DOT":"-0.00000803"},{"SEMIMAJOR_AXIS":"6925.347","BSTAR":"0.00015035000000","PERIOD":"95.592","REV_AT_EPOCH":"7721","ARG_OF_PERICENTER":"73.0744","CLASSIFICATION_TYPE":"U","PERIAPSIS":"546.082","SITE":"AFETR","RCS_SIZE":"LARGE","TLE_LINE2":"2 46548  53.0538 317.3343 0001631  73.0744 287.0424 15.06400633 77215","APOAPSIS":"548.341","MEAN_MOTION":"15.06400633","RA_OF_ASC_NODE":"317.3343","MEAN_MOTION_DDOT":"0.0000000000000","TLE_LINE1":"1 46548U 20070S   22054.87308352  .00001959  00000-0  15035-3 0  9996","EPOCH":"2022-02-23T20:57:14.416128","MEAN_MOTION_DOT":"0.00001959","MEAN_ELEMENT_THEORY":"SGP4","ELEMENT_SET_NO":"999","GP_ID":"196786242","LAUNCH_DATE":"2020-10-06","INCLINATION":"53.0538","FILE":"3317219","OBJECT_ID":"2020-070S","TIME_SYSTEM":"UTC","ECCENTRICITY":"0.00016310","OBJECT_NAME":"STARLINK-1699","NORAD_CAT_ID":"46548","DECAY_DATE":null,"OBJECT_TYPE":"PAYLOAD","COUNTRY_CODE":"US","EPHEMERIS_TYPE":"0","MEAN_ANOMALY":"287.0424","CENTER_NAME":"EARTH","REF_FRAME":"TEME"},{"MEAN_MOTION_DOT":"0.00003542","EPOCH":"2022-02-23T20:04:10.613280","TLE_LINE1":"1 46549U 20070T   22054.83623395  .00003542  00000-0  25657-3 0  9991","MEAN_MOTION_DDOT":"0.0000000000000","RA_OF_ASC_NODE":"317.4878","MEAN_MOTION":"15.06394432","TLE_LINE2":"2 46549  53.0544 317.4878 0001398  71.6442 288.4699 15.06394432 77203","APOAPSIS":"548.199","SITE":"AFETR","RCS_SIZE":"LARGE","PERIAPSIS":"546.262","CLASSIFICATION_TYPE":"U","ARG_OF_PERICENTER":"71.6442","REV_AT_EPOCH":"7720","PERIOD":"95.592","SEMIMAJOR_AXIS":"6925.366","BSTAR":"0.00025657000000","REF_FRAME":"TEME","CENTER_NAME":"EARTH","MEAN_ANOMALY":"288.4699","COUNTRY_CODE":"US","OBJECT_TYPE":"PAYLOAD","EPHEMERIS_TYPE":"0","DECAY_DATE":null,"NORAD_CAT_ID":"46549","OBJECT_NAME":"STARLINK-1700","ECCENTRICITY":"0.00013980","OBJECT_ID":"2020-070T","TIME_SYSTEM":"UTC","INCLINATION":"53.0544","FILE":"3317219","LAUNCH_DATE":"2020-10-06","MEAN_ELEMENT_THEORY":"SGP4","GP_ID":"196785992","ELEMENT_SET_NO":"999"},{"PERIAPSIS":"545.928","ARG_OF_PERICENTER":"60.7340","CLASSIFICATION_TYPE":"U","REV_AT_EPOCH":"7721","PERIOD":"95.592","SEMIMAJOR_AXIS":"6925.325","BSTAR":"0.00058989000000","EPOCH":"2022-02-23T21:18:29.397600","MEAN_MOTION_DOT":"0.00008518","TLE_LINE1":"1 46550U 20070U   22054.88784025  .00008518  00000-0  58989-3 0  9998","MEAN_MOTION_DDOT":"0.0000000000000","RA_OF_ASC_NODE":"317.2642","MEAN_MOTION":"15.06407759","TLE_LINE2":"2 46550  53.0546 317.2642 0001822  60.7340 299.3831 15.06407759 77219","APOAPSIS":"548.452","SITE":"AFETR","RCS_SIZE":"LARGE","ECCENTRICITY":"0.00018220","OBJECT_ID":"2020-070U","TIME_SYSTEM":"UTC","INCLINATION":"53.0546","FILE":"3317219","LAUNCH_DATE":"2020-10-06","MEAN_ELEMENT_THEORY":"SGP4","GP_ID":"196784740","ELEMENT_SET_NO":"999","REF_FRAME":"TEME","CENTER_NAME":"EARTH","MEAN_ANOMALY":"299.3831","COUNTRY_CODE":"US","OBJECT_TYPE":"PAYLOAD","EPHEMERIS_TYPE":"0","DECAY_DATE":null,"NORAD_CAT_ID":"46550","OBJECT_NAME":"STARLINK-1701"}];
